{"type": "FeatureCollection", "features": [ {"type": "Feature", "properties": {"norad_id": 30674, "name": "FENGYUN 1C DEB", "group": "fengyun-1c-debris", "lat": -34.6105309314292, "lon": -47.890101044973626, "alt_km": 599.6911059342456, "timestamp": "2025-12-02T21:34:01.549067+00:00", "meta": {"OBJECT_NAME": "FENGYUN 1C DEB", "OBJECT_ID": "1999-025AQG", "EPOCH": "2025-12-02T09:20:51.779616", "MEAN_MOTION": 14.93168292, "ECCENTRICITY": 0.0023725, "INCLINATION": 98.9418, "RA_OF_ASC_NODE": 137.7698, "ARG_OF_PERICENTER": 326.7665, "MEAN_ANOMALY": 33.2059, "EPHEMERIS_TYPE": 0, "CLASSIFICATION_TYPE": "U", "NORAD_CAT_ID": 30674, "ELEMENT_SET_NO": 999, "REV_AT_EPOCH": 97197, "BSTAR": 0.0077177, "MEAN_MOTION_DOT": 0.00081845, "MEAN_MOTION_DDOT": 0}, "tle": {"line1": "1 30674U 99025AQG 25336.38948819  .00081845  00000+0  77177-2 0  9990", "line2": "2 30674  98.9418 137.7698 0023725 326.7665  33.2059 14.93168292971976"}}, "geometry": {"type": "Point", "coordinates": [-47.890101044973626, -34.6105309314292]}}, {"type": "Feature", "properties": {"norad_id": 30675, "name": "FENGYUN 1C DEB", "group": "fengyun-1c-debris", "lat": 39.87437542392386, "lon": -116.59105687567093, "alt_km": 776.6323002646704, "timestamp": "2025-12-02T21:34:01.549077+00:00", "meta": {"OBJECT_NAME": "FENGYUN 1C DEB", "OBJECT_ID": "1999-025AQH", "EPOCH": "2025-12-02T04:14:12.928128", "MEAN_MOTION": 14.27258567, "ECCENTRICITY": 0.005403, "INCLINATION": 98.7559, "RA_OF_ASC_NODE": 55.2889, "ARG_OF_PERICENTER": 198.847, "MEAN_ANOMALY": 193.0441, "EPHEMERIS_TYPE": 0, "CLASSIFICATION_TYPE": "U", "NORAD_CAT_ID": 30675, "ELEMENT_SET_NO": 999, "REV_AT_EPOCH": 96741, "BSTAR": 0.0019741378, "MEAN_MOTION_DOT": 4.861e-05, "MEAN_MOTION_DDOT": 0}, "tle": {"line1": "1 30675U 99025AQH 25336.17653852  .00004861  00000+0  19741-2 0  9994", "line2": "2 30675  98.7559  55.2889 0054030 198.8470 193.0441 14.27258567967418"}}, "geometry": {"type": "Point", "coordinates": [-116.59105687567093, 39.87437542392386]}}, {"type": "Feature", "properties": {"norad_id": 30676, "name": "FENGYUN 1C DEB", "group": "fengyun-1c-debris", "lat": -10.94606387715303, "lon": -17.523974995504584, "alt_km": 1128.6915347205058, "timestamp": "2025-12-02T21:34:01.549087+00:00", "meta": {"OBJECT_NAME": "FENGYUN 1C DEB", "OBJECT_ID": "1999-025AQJ", "EPOCH": "2025-12-02T11:57:02.100672", "MEAN_MOTION": 13.73863884, "ECCENTRICITY": 0.0472555, "INCLINATION": 98.2658, "RA_OF_ASC_NODE": 163.7389, "ARG_OF_PERICENTER": 76.0755, "MEAN_ANOMALY": 289.2476, "EPHEMERIS_TYPE": 0, "CLASSIFICATION_TYPE": "U", "NORAD_CAT_ID": 30676, "ELEMENT_SET_NO": 999, "REV_AT_EPOCH": 93783, "BSTAR": 0.00096507, "MEAN_MOTION_DOT": 2.004e-05, "MEAN_MOTION_DDOT": 0}, "tle": {"line1": "1 30676U 99025AQJ 25336.49794098  .00002004  00000+0  96507-3 0  9991", "line2": "2 30676  98.2658 163.7389 0472555  76.0755 289.2476 13.73863884937836"}}, "geometry": {"type": "Point", "coordinates": [-17.523974995504584, -10.94606387715303]}}, {"type": "Feature", "properties": {"norad_id": 30677, "name": "FENGYUN 1C DEB", "group": "fengyun-1c-debris", "lat": 55.23510134891533, "lon": -145.54330094649032, "alt_km": 775.4146410410895, "timestamp": "2025-12-02T21:34:01.549097+00:00", "meta": {"OBJECT_NAME": "FENGYUN 1C DEB", "OBJECT_ID": "1999-025AQK", "EPOCH": "2025-12-02T02:44:29.645664", "MEAN_MOTION": 14.38017999, "ECCENTRICITY": 0.0065701, "INCLINATION": 98.2559, "RA_OF_ASC_NODE": 21.6287, "ARG_OF_PERICENTER": 236.0196, "MEAN_ANOMALY": 150.1488, "EPHEMERIS_TYPE": 0, "CLASSIFICATION_TYPE": "U", "NORAD_CAT_ID": 30677, "ELEMENT_SET_NO": 999, "REV_AT_EPOCH": 97827, "BSTAR": 0.0014679126, "MEAN_MOTION_DOT": 4.514e-05, "MEAN_MOTION_DDOT": 0}, "tle": {"line1": "1 30677U 99025AQK 25336.11423201  .00004514  00000+0  14679-2 0  9993", "line2": "2 30677  98.2559  21.6287 0065701 236.0196 150.1488 14.38017999978276"}}, "geometry": {"type": "Point", "coordinates": [-145.54330094649032, 55.23510134891533]}}, {"type": "Feature", "properties": {"norad_id": 30678, "name": "FENGYUN 1C DEB", "group": "fengyun-1c-debris", "lat": 69.82188742185087, "lon": 143.13150349091998, "alt_km": 851.303086406454, "timestamp": "2025-12-02T21:34:01.549107+00:00", "meta": {"OBJECT_NAME": "FENGYUN 1C DEB", "OBJECT_ID": "1999-025AQL", "EPOCH": "2025-12-02T08:18:31.095072", "MEAN_MOTION": 14.23915402, "ECCENTRICITY": 0.0072824, "INCLINATION": 99.0794, "RA_OF_ASC_NODE": 296.7678, "ARG_OF_PERICENTER": 261.308, "MEAN_ANOMALY": 256.8853, "EPHEMERIS_TYPE": 0, "CLASSIFICATION_TYPE": "U", "NORAD_CAT_ID": 30678, "ELEMENT_SET_NO": 999, "REV_AT_EPOCH": 95727, "BSTAR": 0.0041348, "MEAN_MOTION_DOT": 9.706e-05, "MEAN_MOTION_DDOT": 0}, "tle": {"line1": "1 30678U 99025AQL 25336.34619323  .00009706  00000+0  41348-2 0  9992", "line2": "2 30678  99.0794 296.7678 0072824 261.3080 256.8853 14.23915402957270"}}, "geometry": {"type": "Point", "coordinates": [143.13150349091998, 69.82188742185087]}}, {"type": "Feature", "properties": {"norad_id": 30679, "name": "FENGYUN 1C DEB", "group": "fengyun-1c-debris", "lat": -2.4544476194868268, "lon": 29.140388646290234, "alt_km": 1003.2811066959694, "timestamp": "2025-12-02T21:34:01.549120+00:00", "meta": {"OBJECT_NAME": "FENGYUN 1C DEB", "OBJECT_ID": "1999-025AQM", "EPOCH": "2025-12-02T02:34:20.328672", "MEAN_MOTION": 13.79690912, "ECCENTRICITY": 0.01721197, "INCLINATION": 99.3828, "RA_OF_ASC_NODE": 27.9498, "ARG_OF_PERICENTER": 106.8043, "MEAN_ANOMALY": 283.7632, "EPHEMERIS_TYPE": 0, "CLASSIFICATION_TYPE": "U", "NORAD_CAT_ID": 30679, "ELEMENT_SET_NO": 999, "REV_AT_EPOCH": 94373, "BSTAR": 0.00071659557, "MEAN_MOTION_DOT": 7.84e-06, "MEAN_MOTION_DDOT": 0}, "tle": {"line1": "1 30679U 99025AQM 25336.10717973  .00000784  00000+0  71660-3 0  9995", "line2": "2 30679  99.3828  27.9498 0172119 106.8043 283.7632 13.79690912943732"}}, "geometry": {"type": "Point", "coordinates": [29.140388646290234, -2.4544476194868268]}}, {"type": "Feature", "properties": {"norad_id": 30680, "name": "FENGYUN 1C DEB", "group": "fengyun-1c-debris", "lat": -18.49971634562014, "lon": 22.97845088417166, "alt_km": 1271.8091284887041, "timestamp": "2025-12-02T21:34:01.549130+00:00", "meta": {"OBJECT_NAME": "FENGYUN 1C DEB", "OBJECT_ID": "1999-025AQN", "EPOCH": "2025-12-01T15:33:34.436736", "MEAN_MOTION": 13.55958552, "ECCENTRICITY": 0.03420376, "INCLINATION": 99.6294, "RA_OF_ASC_NODE": 18.4988, "ARG_OF_PERICENTER": 195.0174, "MEAN_ANOMALY": 164.0605, "EPHEMERIS_TYPE": 0, "CLASSIFICATION_TYPE": "U", "NORAD_CAT_ID": 30680, "ELEMENT_SET_NO": 999, "REV_AT_EPOCH": 92103, "BSTAR": 0.0043959784, "MEAN_MOTION_DOT": 4.439e-05, "MEAN_MOTION_DDOT": 0}, "tle": {"line1": "1 30680U 99025AQN 25335.64831524  .00004439  00000+0  43960-2 0  9996", "line2": "2 30680  99.6294  18.4988 0342037 195.0174 164.0605 13.55958552921037"}}, "geometry": {"type": "Point", "coordinates": [22.97845088417166, -18.49971634562014]}}, {"type": "Feature", "properties": {"norad_id": 30683, "name": "FENGYUN 1C DEB", "group": "fengyun-1c-debris", "lat": 19.93737211041191, "lon": 171.540098550669, "alt_km": 894.5101730256711, "timestamp": "2025-12-02T21:34:01.549140+00:00", "meta": {"OBJECT_NAME": "FENGYUN 1C DEB", "OBJECT_ID": "1999-025AQR", "EPOCH": "2025-12-01T12:56:59.971200", "MEAN_MOTION": 14.00314591, "ECCENTRICITY": 0.01384349, "INCLINATION": 99.4291, "RA_OF_ASC_NODE": 346.6833, "ARG_OF_PERICENTER": 255.2308, "MEAN_ANOMALY": 258.5882, "EPHEMERIS_TYPE": 0, "CLASSIFICATION_TYPE": "U", "NORAD_CAT_ID": 30683, "ELEMENT_SET_NO": 999, "REV_AT_EPOCH": 95394, "BSTAR": 0.0013943517, "MEAN_MOTION_DOT": 2.193e-05, "MEAN_MOTION_DDOT": 0}, "tle": {"line1": "1 30683U 99025AQR 25335.53958300  .00002193  00000+0  13944-2 0  9993", "line2": "2 30683  99.4291 346.6833 0138434 255.2308 258.5882 14.00314591953943"}}, "geometry": {"type": "Point", "coordinates": [171.540098550669, 19.93737211041191]}}, {"type": "Feature", "properties": {"norad_id": 30684, "name": "FENGYUN 1C DEB", "group": "fengyun-1c-debris", "lat": 78.95696186754958, "lon": -40.98506789568801, "alt_km": 1151.936880214882, "timestamp": "2025-12-02T21:34:01.549150+00:00", "meta": {"OBJECT_NAME": "FENGYUN 1C DEB", "OBJECT_ID": "1999-025AQS", "EPOCH": "2025-12-01T13:31:37.536960", "MEAN_MOTION": 13.66771783, "ECCENTRICITY": 0.02336022, "INCLINATION": 99.5313, "RA_OF_ASC_NODE": 17.113, "ARG_OF_PERICENTER": 298.0542, "MEAN_ANOMALY": 59.7156, "EPHEMERIS_TYPE": 0, "CLASSIFICATION_TYPE": "U", "NORAD_CAT_ID": 30684, "ELEMENT_SET_NO": 999, "REV_AT_EPOCH": 93476, "BSTAR": 0.00093442149, "MEAN_MOTION_DOT": 8.93e-06, "MEAN_MOTION_DDOT": 0}, "tle": {"line1": "1 30684U 99025AQS 25335.56362890  .00000893  00000+0  93442-3 0  9997", "line2": "2 30684  99.5313  17.1130 0233602 298.0542  59.7156 13.66771783934763"}}, "geometry": {"type": "Point", "coordinates": [-40.98506789568801, 78.95696186754958]}}, {"type": "Feature", "properties": {"norad_id": 30686, "name": "FENGYUN 1C DEB", "group": "fengyun-1c-debris", "lat": -19.4075913700553, "lon": -13.535198695517312, "alt_km": 586.2223581202779, "timestamp": "2025-12-02T21:34:01.549160+00:00", "meta": {"OBJECT_NAME": "FENGYUN 1C DEB", "OBJECT_ID": "1999-025AQU", "EPOCH": "2025-12-02T11:10:46.953408", "MEAN_MOTION": 14.73682848, "ECCENTRICITY": 0.0144201, "INCLINATION": 99.0335, "RA_OF_ASC_NODE": 169.1961, "ARG_OF_PERICENTER": 152.5735, "MEAN_ANOMALY": 270.9284, "EPHEMERIS_TYPE": 0, "CLASSIFICATION_TYPE": "U", "NORAD_CAT_ID": 30686, "ELEMENT_SET_NO": 999, "REV_AT_EPOCH": 99450, "BSTAR": 0.0011545, "MEAN_MOTION_DOT": 8.838e-05, "MEAN_MOTION_DDOT": 0}, "tle": {"line1": "1 30686U 99025AQU 25336.46582122  .00008838  00000+0  11545-2 0  9991", "line2": "2 30686  99.0335 169.1961 0144201 152.5735 270.9284 14.73682848994507"}}, "geometry": {"type": "Point", "coordinates": [-13.535198695517312, -19.4075913700553]}}]}